    eccentricity => '0.0013646',
    meananomaly => '129.7812',
    raan => '276.2802',
    argperigee => '230.1499',
    orbit => 4643,
    epoch => '20142.78984911',
    number => 19036
  },
  'GOMX-1' => {
    epoch => '20142.8598324',
    number => 13066,
    orbit => 34592,
    raan => '82.9959',
    argperigee => '268.4843',
    inclination => '97.7885',
    mm2 => 0,
    eccentricity => '0.0149536',
    meananomaly => '89.9236',
    elset => 999,
    meanmotion => '14.59393587',
    mm1 => '1.46e-06',
    id => 39430,
    bstar => '3.5913e-05'
  },
  'TRSI-SAT' => {
    number => 19084,
    epoch => '20141.60835092',
    argperigee => '347.1745',
    raan => '10.5561',
    orbit => 2607,
    meanmotion => '15.75777612',
    elset => 999,
    eccentricity => '0.0026731',
    meananomaly => '12.8838',
    mm2 => 0,
    inclination => '96.9795',
    bstar => '0.00025837',
    id => 44831,
    mm1 => '0.0004051'
  },
  'XW-2D' => {
    bstar => '2.7953e-05',
    id => 40907,
    mm1 => '4.76e-06',
    eccentricity => '0.0015776',
    meananomaly => '17.1943',
    meanmotion => '15.16277922',
    elset => 999,
    inclination => '97.4749',
    mm2 => 0,
    orbit => 25824,
    argperigee => '101.9172',
    raan => '144.294',
    number => 15049,
    epoch => '20142.84877495'
  },
  NUDATSAT => {
    number => 17036,
    epoch => '20142.91882207',
    orbit => 16165,
    raan => '198.904',
    argperigee => '108.484',
    eccentricity => '0.0011958',
    meananomaly => '251.7696',
    meanmotion => '15.24448543',
    elset => 999,
    inclination => '97.3074',
    mm2 => 0,
    bstar => '6.331e-05',
    id => 42787,
    mm1 => '1.486e-05'
  },
  'RS-40' => {
    number => 12041,
    epoch => '20142.71852316',
    orbit => 35453,
    raan => '17.3373',
    argperigee => '217.648',
    meananomaly => '142.3467',
    eccentricity => '0.0016213',
    elset => 999,
    meanmotion => '12.42579587',
    inclination => '82.4807',
    mm2 => 0,
    bstar => '-7.9089e-05',
    id => 38735,
    mm1 => '-1e-08'
  },
  'UITMSAT-1' => {
    mm1 => '0.00029766',
    bstar => '0.00019565',
    id => 43589,
    inclination => '51.6345',
    mm2 => 0,
    eccentricity => '0.0004072',
    meananomaly => '321.8054',
    meanmotion => '15.75430153',
    elset => 999,
    orbit => 10168,
    argperigee => '38.3234',
    raan => '66.6958',
    epoch => '20142.24662382',
    number => 98067
  },
  'SO-50' => {
    bstar => '1.4147e-05',
    id => 27607,
    mm1 => '-4.5e-07',
    elset => 999,
    meanmotion => '14.75634622',
    meananomaly => '175.5716',
    eccentricity => '0.0051287',
    mm2 => 0,
    inclination => '64.5552',
    raan => '95.6457',
    argperigee => '184.4934',
    orbit => 93680,
    number => 2058,
    epoch => '20142.86953503'
  },
  'CHUBUSAT-2' => {
    mm2 => 0,
    inclination => '31.002',
    meanmotion => '15.00287629',
    elset => 999,
    meananomaly => '150.3657',
    eccentricity => '0.0013763',
    mm1 => '2.46e-06',
    bstar => '1.2292e-05',
    id => 41338,
    epoch => '20142.49007808',
    number => 16012,
    argperigee => '209.6199',
    raan => '157.8104',
    orbit => 23368
  },
  DEORBITSAIL => {
    orbit => 26215,
    argperigee => '297.9327',
    raan => '32.038',
    epoch => '20142.74147178',
    number => 15032,
    mm1 => '3.16e-06',
    id => 40719,
    bstar => '5.2028e-05',
    inclination => '97.8732',
    mm2 => 0,
    meananomaly => '62.0355',
    eccentricity => '0.0015091',
    meanmotion => '14.76988129',
    elset => 999
  },
  'CUBEBEL-1' => {
    epoch => '20142.81166303',
    number => 18083,
    orbit => 8657,
    raan => '169.5385',
    argperigee => '92.7427',
    inclination => '97.4908',
    mm2 => 0,
    meananomaly => '17.129',
    eccentricity => '0.0016676',
    meanmotion => '15.18211475',
    elset => 999,
    mm1 => '8.66e-06',
    bstar => '4.5569e-05',
    id => 43666
  },
  'NO-45' => {
    epoch => '6033.19376194',
    number => 1043,
    orbit => 22667,
    raan => '355.0698',
    argperigee => '289.4953',
    inclination => '67.0595',
    mm2 => 0,
    eccentricity => '0.0006618',
    meananomaly => '70.544',
    elset => 232,
    meanmotion => '14.29513752',
    mm1 => '-7.2e-07',
    id => 26932,
    bstar => '3.9873e-06'
  },
  'MOVE-II' => {
    bstar => '5.8541e-05',
    id => 43780,
    mm1 => '5.89e-06',
    meanmotion => '14.95378156',
    elset => 999,
    eccentricity => '0.0011851',
    meananomaly => '74.5401',
    mm2 => 0,
    inclination => '97.707',
    argperigee => '285.451',
    raan => '214.7955',
    orbit => 7992,
    number => 18099,
    epoch => '20142.758956'
  },
  'TO-31' => {
    meanmotion => '14.23695764',
    elset => 448,
    meananomaly => '140.8553',
    eccentricity => '0.0001856',
    mm2 => 0,
    inclination => '98.4984',
    bstar => '3.3313e-05',
    id => 25396,
    mm1 => '3.4e-07',
    number => 98043,
    epoch => '6033.78869058',
    argperigee => '219.2504',
    raan => '98.7678',
    orbit => 39322
  },
  'AO-91' => {
    mm1 => '2.87e-06',
    id => 43017,
    bstar => '2.7428e-05',
    inclination => '97.7243',
    mm2 => 0,
    meananomaly => '224.9811',
    eccentricity => '0.025799',
    meanmotion => '14.78907917',
    elset => 999,
    orbit => 13521,
    argperigee => '137.1816',
    raan => '56.0003',
    epoch => '20142.73240864',
    number => 17073
  },
  'PO-34' => {
    id => 25520,
    bstar => '2.3439e-05',
    mm1 => '6.67e-06',
    meananomaly => '158.4589',
    eccentricity => '0.0005429',
    elset => 382,
    meanmotion => '15.16602026',
    inclination => '28.4582',
    mm2 => 0,
    orbit => 40147,
    argperigee => '201.5769',
    raan => '216.841',
    number => 98064,
    epoch => '6032.79428813'
  },
  'TY-1' => {
    mm1 => '6.95e-06',
    id => 41844,
    bstar => '3.0797e-05',
    inclination => '97.4037',
    mm2 => 0,
    meananomaly => '40.746',
    eccentricity => '0.0016716',
    elset => 999,
    meanmotion => '15.24813342',
    orbit => 19621,
    raan => '151.3306',
    argperigee => '79.1685',
    epoch => '20142.86238634',
    number => 16066
  },
  'RS-22' => {
    argperigee => '79.9172',
    raan => '278.0305',
    orbit => 89011,
    epoch => '20142.85129464',
    number => 3042,
    mm1 => '8.4e-07',
    bstar => '2.3714e-05',
    id => 27939,
    mm2 => 0,
    inclination => '98.0861',
    elset => 999,
    meanmotion => '14.66860762',
    eccentricity => '0.0014243',
    meananomaly => '280.364'
  },
  DCBB => {
    mm1 => '7.77e-06',
    bstar => '3.888e-05',
    id => 40912,
    mm2 => 0,
    inclination => '97.4488',
    meanmotion => '15.2028618',
    elset => 999,
    eccentricity => '0.0016459',
    meananomaly => '340.2064',
    raan => '150.8633',
    argperigee => '74.0369',
    orbit => 25866,
    epoch => '20142.76049572',
    number => 15049
  },
  'PEGASUS-1' => {
    bstar => '2.9683e-05',
    id => 41846,
    mm1 => '1.21e-06',
    elset => 999,
    meanmotion => '14.37757303',
    meananomaly => '44.1079',
    eccentricity => '0.0365916',
    mm2 => 0,
    inclination => '98.6636',
    argperigee => '312.9967',
    raan => '192.4722',
    orbit => 18512,
    number => 16066,
    epoch => '20142.70451837'
  },
  'REAKTOR-HELLO-WORLD' => {
    epoch => '20142.76453401',
    number => 18096,
    raan => '216.7727',
    argperigee => '218.0244',
    orbit => 8232,
    mm2 => 0,
    inclination => '97.4218',
    meanmotion => '15.27350253',
    elset => 999,
    meananomaly => '141.9807',
    eccentricity => '0.0016845',
    mm1 => '9.63e-06',
    id => 43743,
    bstar => '3.8643e-05'
  },
  'OKEAN-0' => {
    orbit => 35183,
    argperigee => '116.0529',
    raan => '53.5098',
    epoch => '6032.92677884',
    number => 99039,
    mm1 => '8.5e-07',
    bstar => '2.0299e-05',
    id => 25860,
    inclination => '97.7416',
    mm2 => 0,
    meananomaly => '244.079',
    eccentricity => '0.0001086',
    meanmotion => '14.73334921',
    elset => 658
  },
  'VELOX-1' => {
    epoch => '20142.89242469',
    number => 14034,
    argperigee => '225.161',
    raan => '279.1347',
    orbit => 31771,
    mm2 => 0,
    inclination => '98.2765',
    elset => 999,
    meanmotion => '14.77862956',
    meananomaly => '134.8795',
    eccentricity => '0.0009956',
    mm1 => '2.54e-06',
    bstar => '4.3058e-05',
    id => 40057
  },
  'OKEAN-4' => {
    raan => '42.3855',
    argperigee => '96.7261',
    orbit => 61006,
    epoch => '6033.75290085',
    number => 94066,
    mm1 => '2.03e-06',
    bstar => '2.2207e-05',
    id => 23317,
    mm2 => 0,
    inclination => '82.537',
    meanmotion => '14.82304334',
    elset => 854,
    eccentricity => '0.002406',
    meananomaly => '263.6704'
  },
  SPROUT => {
    inclination => '97.8936',
    mm2 => 0,
    meananomaly => '299.288',
    eccentricity => '0.0010139',
    elset => 999,
    meanmotion => '14.87737815',
    mm1 => '3.64e-06',
    bstar => '4.5937e-05',
    id => 39770,
    epoch => '20142.85008628',
    number => 14029,
    orbit => 32510,
    raan => '249.2448',
    argperigee => '60.9346'
  },
  'MO-46' => {
    meananomaly => '93.2362',
    eccentricity => '0.0052189',
    elset => 403,
    meanmotion => '14.82908384',
    inclination => '64.5576',
    mm2 => 0,
    bstar => '2.2452e-05',
    id => 26548,
    mm1 => '3.3e-07',
    number => 57,
    epoch => '6033.7752293',
    orbit => 28947,
    argperigee => '266.2765',
    raan => '287.4574'
  },
  'HO-107' => {
    meanmotion => '15.33481858',
    elset => 999,
    meananomaly => '40.3459',
    eccentricity => '0.0012118',
    mm2 => 0,
    inclination => '51.6429',
    id => 45119,
    bstar => '3.9123e-05',
    mm1 => '9.07e-06',
    number => 19071,
    epoch => '20142.67899622',
    argperigee => '319.6623',
    raan => '132.6753',
    orbit => 1701
  },
  QARMAN => {
    raan => '118.144',
    argperigee => '260.6542',
    orbit => 1440,
    number => 98067,
    epoch => '20142.83106497',
    bstar => '9.3105e-05',
    id => 45263,
